{
  "type": "FeatureCollection",
  "features": [
    {
      "type": "Feature",
      "properties": {
        "norad_id": 35033,
        "name": "COSMOS 2251 DEB",
        "group": "cosmos-2251-debris",
        "lat": -67.15762966052931,
        "lon": 129.88083898076223,
        "alt_km": 719.3064892585835,
        "timestamp": "2025-12-14T18:52:55.899245+00:00",
        "meta_object_name": "COSMOS 2251 DEB",
        "meta_object_id": "1993-036AGW",
        "meta_epoch": "2025-12-12T19:13:51.745440",
        "meta_mean_motion": 14.50928801,
        "meta_eccentricity": 0.00144343,
        "meta_inclination": 74.0257,
        "meta_ra_of_asc_node": 176.4611,
        "meta_arg_of_pericenter": 282.9682,
        "meta_mean_anomaly": 76.9867,
        "meta_ephemeris_type": 0,
        "meta_classification_type": "U",
        "meta_norad_cat_id": 35033,
        "meta_element_set_no": 999,
        "meta_rev_at_epoch": 65928,
        "meta_bstar": 0.0009932764,
        "meta_mean_motion_dot": 3.902e-05,
        "meta_mean_motion_ddot": 0,
        "tle_line1": "1 35033U 93036AGW 25346.80129335  .00003902  00000+0  99328-3 0  9993",
        "tle_line2": "2 35033  74.0257 176.4611 0014434 282.9682  76.9867 14.50928801659281"
      },
      "geometry": {
        "type": "Point",
        "coordinates": [
          129.88083898076223,
          -67.15762966052931
        ]
      }
    },
    {
      "type": "Feature",
      "properties": {
        "norad_id": 35038,
        "name": "COSMOS 2251 DEB",
        "group": "cosmos-2251-debris",
        "lat": 59.33548670262548,
        "lon": 67.62592617771281,
        "alt_km": 740.0014445064398,
        "timestamp": "2025-12-14T18:52:55.899255+00:00",
        "meta_object_name": "COSMOS 2251 DEB",
        "meta_object_id": "1993-036AHB",
        "meta_epoch": "2025-12-13T21:31:00.007104",
        "meta_mean_motion": 14.25157487,
        "meta_eccentricity": 0.01139297,
        "meta_inclination": 74.1077,
        "meta_ra_of_asc_node": 40.5066,
        "meta_arg_of_pericenter": 23.9273,
        "meta_mean_anomaly": 153.1252,
        "meta_ephemeris_type": 0,
        "meta_classification_type": "U",
        "meta_norad_cat_id": 35038,
        "meta_element_set_no": 999,
        "meta_rev_at_epoch": 85585,
        "meta_bstar": 0.0014433566,
        "meta_mean_motion_dot": 3.603e-05,
        "meta_mean_motion_ddot": 0,
        "tle_line1": "1 35038U 93036AHB 25347.89652786  .00003603  00000+0  14434-2 0  9991",
        "tle_line2": "2 35038  74.1077  40.5066 0113929  23.9273 153.1252 14.25157487855853"
      },
      "geometry": {
        "type": "Point",
        "coordinates": [
          67.62592617771281,
          59.33548670262548
        ]
      }
    },
    {
      "type": "Feature",
      "properties": {
        "norad_id": 35043,
        "name": "COSMOS 2251 DEB",
        "group": "cosmos-2251-debris",
        "lat": -68.23351800358559,
        "lon": -4.590714950200122,
        "alt_km": 589.4280886845572,
        "timestamp": "2025-12-14T18:52:55.899265+00:00",
        "meta_object_name": "COSMOS 2251 DEB",
        "meta_object_id": "1993-036AHG",
        "meta_epoch": "2025-12-12T10:19:31.767456",
        "meta_mean_motion": 14.76940501,
        "meta_eccentricity": 0.00964725,
        "meta_inclination": 73.9505,
        "meta_ra_of_asc_node": 46.1859,
        "meta_arg_of_pericenter": 255.5688,
        "meta_mean_anomaly": 103.4766,
        "meta_ephemeris_type": 0,
        "meta_classification_type": "U",
        "meta_norad_cat_id": 35043,
        "meta_element_set_no": 999,
        "meta_rev_at_epoch": 67414,
        "meta_bstar": 0.0053994821,
        "meta_mean_motion_dot": 0.00041249,
        "meta_mean_motion_ddot": 0,
        "tle_line1": "1 35043U 93036AHG 25346.43022879  .00041249  00000+0  53995-2 0  9993",
        "tle_line2": "2 35043  73.9505  46.1859 0096472 255.5688 103.4766 14.76940501674142"
      },
      "geometry": {
        "type": "Point",
        "coordinates": [
          -4.590714950200122,
          -68.23351800358559
        ]
      }
    },
    {
      "type": "Feature",
      "properties": {
        "norad_id": 35045,
        "name": "COSMOS 2251 DEB",
        "group": "cosmos-2251-debris",
        "lat": -73.13426181575988,
        "lon": -56.34750621789094,
        "alt_km": 778.1757853332429,
        "timestamp": "2025-12-14T18:52:55.899276+00:00",
        "meta_object_name": "COSMOS 2251 DEB",
        "meta_object_id": "1993-036AHJ",
        "meta_epoch": "2025-12-12T12:27:23.258016",
        "meta_mean_motion": 14.00384321,
        "meta_eccentricity": 0.01836,
        "meta_inclination": 73.7196,
        "meta_ra_of_asc_node": 53.0934,
        "meta_arg_of_pericenter": 295.1287,
        "meta_mean_anomaly": 63.0895,
        "meta_ephemeris_type": 0,
        "meta_classification_type": "U",
        "meta_norad_cat_id": 35045,
        "meta_element_set_no": 999,
        "meta_rev_at_epoch": 84640,
        "meta_bstar": 0.00096523988,
        "meta_mean_motion_dot": 1.627e-05,
        "meta_mean_motion_ddot": 0,
        "tle_line1": "1 35045U 93036AHJ 25346.51901919  .00001627  00000+0  96524-3 0  9997",
        "tle_line2": "2 35045  73.7196  53.0934 0183600 295.1287  63.0895 14.00384321846407"
      },
      "geometry": {
        "type": "Point",
        "coordinates": [
          -56.34750621789094,
          -73.13426181575988
        ]
      }
    },
    {
      "type": "Feature",
      "properties": {
        "norad_id": 35060,
        "name": "COSMOS 2251 DEB",
        "group": "cosmos-2251-debris",
        "lat": 59.03894950262472,
        "lon": 32.04070863819462,
        "alt_km": 758.6291867374639,
        "timestamp": "2025-12-14T18:52:55.899286+00:00",
        "meta_object_name": "COSMOS 2251 DEB",
        "meta_object_id": "1993-036AHP",
        "meta_epoch": "2025-12-12T09:42:56.373696",
        "meta_mean_motion": 14.4159863,
        "meta_eccentricity": 0.00185395,
        "meta_inclination": 74.0367,
        "meta_ra_of_asc_node": 244.9485,
        "meta_arg_of_pericenter": 331.3845,
        "meta_mean_anomaly": 28.6291,
        "meta_ephemeris_type": 0,
        "meta_classification_type": "U",
        "meta_norad_cat_id": 35060,
        "meta_element_set_no": 999,
        "meta_rev_at_epoch": 87237,
        "meta_bstar": 0.00047553365,
        "meta_mean_motion_dot": 1.524e-05,
        "meta_mean_motion_ddot": 0,
        "tle_line1": "1 35060U 93036AHP 25346.40481914  .00001524  00000+0  47553-3 0  9994",
        "tle_line2": "2 35060  74.0367 244.9485 0018539 331.3845  28.6291 14.41598630872378"
      },
      "geometry": {
        "type": "Point",
        "coordinates": [
          32.04070863819462,
          59.03894950262472
        ]
      }
    },
    {
      "type": "Feature",
      "properties": {
        "norad_id": 35061,
        "name": "COSMOS 2251 DEB",
        "group": "cosmos-2251-debris",
        "lat": -13.89159894127137,
        "lon": 125.82946732149033,
        "alt_km": 693.9194571151438,
        "timestamp": "2025-12-14T18:52:55.899296+00:00",
        "meta_object_name": "COSMOS 2251 DEB",
        "meta_object_id": "1993-036AHQ",
        "meta_epoch": "2025-12-12T15:17:41.757504",
        "meta_mean_motion": 14.67826183,
        "meta_eccentricity": 0.00390968,
        "meta_inclination": 74.0459,
        "meta_ra_of_asc_node": 305.9213,
        "meta_arg_of_pericenter": 56.8247,
        "meta_mean_anomaly": 303.6662,
        "meta_ephemeris_type": 0,
        "meta_classification_type": "U",
        "meta_norad_cat_id": 35061,
        "meta_element_set_no": 999,
        "meta_rev_at_epoch": 88573,
        "meta_bstar": 0.0012039326,
        "meta_mean_motion_dot": 6.928e-05,
        "meta_mean_motion_ddot": 0,
        "tle_line1": "1 35061U 93036AHQ 25346.63728886  .00006928  00000+0  12039-2 0  9995",
        "tle_line2": "2 35061  74.0459 305.9213 0039096  56.8247 303.6662 14.67826183885731"
      },
      "geometry": {
        "type": "Point",
        "coordinates": [
          125.82946732149033,
          -13.89159894127137
        ]
      }
    },
    {
      "type": "Feature",
      "properties": {
        "norad_id": 35062,
        "name": "COSMOS 2251 DEB",
        "group": "cosmos-2251-debris",
        "lat": -71.4543233256391,
        "lon": 31.272711727563845,
        "alt_km": 912.3883915577053,
        "timestamp": "2025-12-14T18:52:55.899306+00:00",
        "meta_object_name": "COSMOS 2251 DEB",
        "meta_object_id": "1993-036AHR",
        "meta_epoch": "2025-12-10T15:42:45.436320",
        "meta_mean_motion": 14.22906612,
        "meta_eccentricity": 0.01275957,
        "meta_inclination": 74.0784,
        "meta_ra_of_asc_node": 96.9836,
        "meta_arg_of_pericenter": 97.3041,
        "meta_mean_anomaly": 264.2628,
        "meta_ephemeris_type": 0,
        "meta_classification_type": "U",
        "meta_norad_cat_id": 35062,
        "meta_element_set_no": 999,
        "meta_rev_at_epoch": 85469,
        "meta_bstar": 0.0028656551,
        "meta_mean_motion_dot": 6.986e-05,
        "meta_mean_motion_ddot": 0,
        "tle_line1": "1 35062U 93036AHR 25344.65469255  .00006986  00000+0  28657-2 0  9995",
        "tle_line2": "2 35062  74.0784  96.9836 0127595  97.3041 264.2628 14.22906612854697"
      },
      "geometry": {
        "type": "Point",
        "coordinates": [
          31.272711727563845,
          -71.4543233256391
        ]
      }
    }
  ]
}